[{"OBJECT_NAME":"STARLINK-3757","OBJECT_ID":"2022-051G","EPOCH":"2026-03-09T10:25:05.142720","MEAN_MOTION":15.08839998,"ECCENTRICITY":0.00015891,"INCLINATION":53.2179,"RA_OF_ASC_NODE":130.2694,"ARG_OF_PERICENTER":89.51,"MEAN_ANOMALY":270.6075,"EPHEMERIS_TYPE":0,"CLASSIFICATION_TYPE":"U","NORAD_CAT_ID":52539,"ELEMENT_SET_NO":999,"REV_AT_EPOCH":21140,"BSTAR":3.5835187e-5,"MEAN_MOTION_DOT":2.82e-6,"MEAN_MOTION_DDOT":0},{"OBJECT_NAME":"CZ-4B DEB","OBJECT_ID":"2006-015C","EPOCH":"2026-03-08T07:50:56.789952","MEAN_MOTION":14.91364963,"ECCENTRICITY":0.00849927,"INCLINATION":97.8628,"RA_OF_ASC_NODE":27.0975,"ARG_OF_PERICENTER":296.8782,"MEAN_ANOMALY":62.3767,"EPHEMERIS_TYPE":0,"CLASSIFICATION_TYPE":"U","NORAD_CAT_ID":29536,"ELEMENT_SET_NO":999,"REV_AT_EPOCH":4888,"BSTAR":0.0026311155,"MEAN_MOTION_DOT":0.00028164,"MEAN_MOTION_DDOT":0}]
